NORAD_CAT_ID,OBJECT_NAME,OBJECT_TYPE,EPOCH,MEAN_MOTION,ECCENTRICITY,INCLINATION,RA_OF_ASC_NODE,ARG_OF_PERICENTER,MEAN_ANOMALY,BSTAR,MEAN_MOTION_DOT,MEAN_MOTION_DDOT,TLE_LINE0,TLE_LINE1,TLE_LINE2,SEMIMAJOR_AXIS,PERIOD,APOGEE,PERIGEE,DECAYED
52544.0,STARLINK-3944,PAYLOAD,2022-06-26 14:00:01,15.13528881,0.0001727,53.2173,84.0136,45.4486,98.0165,-0.050012,-0.00844433,0.0,0 STARLINK-3944,1 52544U 22051M   22177.58335648 -.00844433  00000-0 -50012-1 0  9998,2 52544  53.2173  84.0136 0001727  45.4486  98.0165 15.13528881  1308,6903.585,95.142,526.643,524.258,0.0
52544.0,STARLINK-3944,PAYLOAD,2022-06-26 20:00:01,15.13083775,0.0001656,53.2175,82.8823,43.4455,22.6745,-0.050802,-0.00846887,0.0,0 STARLINK-3944,1 52544U 22051M   22177.83334491 -.00846887  00000-0 -50802-1 0  9993,2 52544  53.2175  82.8823 0001656  43.4455  22.6745 15.13083775  7350,6904.939,95.17,527.948,525.661,0.0
52544.0,STARLINK-3944,PAYLOAD,2022-06-26 22:00:00,15.12932979,0.0001807,53.2174,82.5056,45.4713,114.7994,-0.050829,-0.00843978,0.0,0 STARLINK-3944,1 52544U 22051M   22177.91667824 -.00843978  00000-0 -50829-1 0  9998,2 52544  53.2174  82.5056 0001807  45.4713 114.7994 15.12932979  1307,6905.398,95.179,528.511,526.015,0.0
52544.0,STARLINK-3944,PAYLOAD,2022-06-27 14:00:01,15.1174218,0.0001727,53.2173,79.4905,49.0429,142.8196,-0.052621,-0.00844953,0.0,0 STARLINK-3944,1 52544U 22051M   22178.58334491 -.00844953  00000-0 -52621-1 0  9999,2 52544  53.2173  79.4905 0001727  49.0429 142.8196 15.11742180  1307,6909.024,95.254,532.082,529.696,0.0
52544.0,STARLINK-3944,PAYLOAD,2022-06-27 22:00:00,15.11145075,0.0001945,53.2175,77.9869,41.8951,164.68900000000005,-0.053326,-0.00842339,0.0,0 STARLINK-3944,1 52544U 22051M   22178.91667824 -.00842339  00000-0 -53326-1 0  9994,2 52544  53.2175  77.9869 0001945  41.8951 164.6890 15.11145075  7526,6910.844,95.292,534.053,531.364,0.0
52544.0,STARLINK-3944,PAYLOAD,2022-06-28 14:00:01,15.09957463,0.0001815,53.2173,74.9801,46.7616,187.1189,-0.055734,-0.00851145,0.0,0 STARLINK-3944,1 52544U 22051M   22179.58334491 -.00851145  00000-0 -55734-1 0  9999,2 52544  53.2173  74.9801 0001815  46.7616 187.1189 15.09957463  1305,6914.467,95.367,537.587,535.077,0.0
52544.0,STARLINK-3944,PAYLOAD,2022-06-28 22:00:00,15.09266084,0.0002231,53.2175,73.4819,41.0722,205.3905,-0.026814,-0.00408264,0.0,0 STARLINK-3944,1 52544U 22051M   22179.91667824 -.00408264  00000-0 -26814-1 0  9992,2 52544  53.2175  73.4819 0002231  41.0722 205.3905 15.09266084  1300,6916.578,95.411,539.986,536.9,0.0
52544.0,STARLINK-3944,PAYLOAD,2022-06-29 06:00:00,15.08843478,0.0001702,53.2172,71.9844,50.2097,208.218,-0.00077178,-0.00012551,0.0,0 STARLINK-3944,1 52544U 22051M   22180.25001157 -.00012551  00000-0 -77178-3 0  9993,2 52544  53.2172  71.9844 0001702  50.2097 208.2180 15.08843478  7723,6917.87,95.437,540.9119999999998,538.557,0.0
52544.0,STARLINK-3944,PAYLOAD,2022-06-29 14:00:01,15.08872457,0.0001447,53.2205,70.4925,46.3442,223.6905,-0.0044506,-0.00070489,0.0,0 STARLINK-3944,1 52544U 22051M   22180.58334491 -.00070489  00000-0 -44506-2 0  9991,2 52544  53.2205  70.4925 0001447  46.3442 223.6905 15.08872457  1303,6917.781,95.436,540.6469999999998,538.645,0.0
52544.0,STARLINK-3944,PAYLOAD,2022-06-29 22:00:00,15.08884748,0.0001641999999999,53.2196,69.0034,46.772,234.8812,-0.0031293,-0.00049808,0.0,0 STARLINK-3944,1 52544U 22051M   22180.91667824 -.00049808  00000-0 -31293-2 0  9997,2 52544  53.2196  69.0034 0001642  46.7720 234.8812 15.08884748  1304,6917.744000000002,95.435,540.745,538.4730000000002,0.0
52544.0,STARLINK-3944,PAYLOAD,2022-06-30 14:00:01,15.08793342,0.0001742,53.2187,66.0093,55.8042,249.0749,0.0032052,0.00051027,0.0,0 STARLINK-3944,1 52544U 22051M   22181.58334491  .00051027  00000-0  32052-2 0  9990,2 52544  53.2187  66.0093 0001742  55.8042 249.0749 15.08793342  1301,6918.023,95.441,541.0930000000002,538.683,0.0
52544.0,STARLINK-3944,PAYLOAD,2022-06-30 22:00:00,15.08821784,0.0001903,53.2186,64.5147,52.6564,263.7727,-0.0010837,-0.00017485,0.0,0 STARLINK-3944,1 52544U 22051M   22181.91667824 -.00017485  00000-0 -10837-2 0  9995,2 52544  53.2186  64.5147 0001903  52.6564 263.7727 15.08821784  7976,6917.936,95.439,541.118,538.485,0.0
52544.0,STARLINK-3944,PAYLOAD,2022-07-01 14:00:01,15.08800722,0.000183,53.2184,61.5204,57.6701,281.9014,0.0029021,0.00046152,0.0,0 STARLINK-3944,1 52544U 22051M   22182.58334491  .00046152  00000-0  29021-2 0  9996,2 52544  53.2184  61.5204 0001830  57.6701 281.9014 15.08800722  1303,6918.0,95.44,541.131,538.599,0.0
52544.0,STARLINK-3944,PAYLOAD,2022-07-01 22:00:00,15.08832643,0.0001998,53.2184,60.0258,53.911,297.2290000000001,-0.0010106,-0.00016333,0.0,0 STARLINK-3944,1 52544U 22051M   22182.91667824 -.00016333  00000-0 -10106-2 0  9996,2 52544  53.2184  60.0258 0001998  53.9110 297.2290 15.08832643  1307,6917.903,95.438,541.15,538.386,0.0
52544.0,STARLINK-3944,PAYLOAD,2022-07-02 14:00:01,15.08818124,0.0001913,53.2185,57.0313,58.8433,315.4696,0.0029024,0.00046179,0.0,0 STARLINK-3944,1 52544U 22051M   22183.58334491  .00046179  00000-0  29024-2 0  9999,2 52544  53.2185  57.0313 0001913  58.8433 315.4696 15.08818124  1306,6917.946999999999,95.439,541.136,538.489,0.0
52544.0,STARLINK-3944,PAYLOAD,2022-07-02 22:00:00,15.08855003,0.0002082,53.2186,55.5367,54.7616,331.1485,-0.00051912,-8.544e-05,0.0,0 STARLINK-3944,1 52544U 22051M   22183.91667824 -.00008544  00000-0 -51912-3 0  9993,2 52544  53.2186  55.5367 0002082  54.7616 331.1485 15.08855003  1303,6917.835,95.437,541.14,538.259,0.0
52544.0,STARLINK-3944,PAYLOAD,2022-07-03 00:00:00,15.08841353,0.00021,53.2188,55.1628,53.8874,64.9286,0.0015108,0.00023839,0.0,0 STARLINK-3944,1 52544U 22051M   22184.00001157  .00023839  00000-0  15108-2 0  9993,2 52544  53.2188  55.1628 0002100  53.8874  64.9286 15.08841353  8285,6917.876,95.437,541.194,538.288,0.0
52544.0,STARLINK-3944,PAYLOAD,2022-07-03 14:00:01,15.088655800000002,0.0001916,53.2189,52.542,58.7708,350.3716,-0.00036203,-6.049e-05,0.0,0 STARLINK-3944,1 52544U 22051M   22184.58334491 -.00006049  00000-0 -36203-3 0  9992,2 52544  53.2189  52.5420 0001916  58.7708 350.3716 15.08865580  1305,6917.802,95.436,540.993,538.342,0.0
52544.0,STARLINK-3944,PAYLOAD,2022-07-03 22:00:00,15.08843406,0.0001988,53.219,51.0474,52.744,8.0184,-0.0032529,-0.00051693,0.0,0 STARLINK-3944,1 52544U 22051M   22184.91667824 -.00051693  00000-0 -32529-2 0  9999,2 52544  53.2190  51.0474 0001988  52.7440   8.0184 15.08843406  8425,6917.87,95.437,541.11,538.36,0.0
52544.0,STARLINK-3944,PAYLOAD,2022-07-04 14:00:01,15.08809782,0.0001831,53.2195,48.0529,57.9902,25.9197,0.0021146,0.00033498,0.0,0 STARLINK-3944,1 52544U 22051M   22185.58334491  .00033498  00000-0  21146-2 0  9998,2 52544  53.2195  48.0529 0001831  57.9902  25.9197 15.08809782  1305,6917.973000000001,95.439,541.104,538.571,0.0
52544.0,STARLINK-3944,PAYLOAD,2022-07-04 22:00:00,15.08833137,0.0001977,53.2195,46.5584,53.0402,42.4508,-0.0001875,-3.271e-05,0.0,0 STARLINK-3944,1 52544U 22051M   22185.91667824 -.00003271  00000-0 -18750-3 0  9990,2 52544  53.2195  46.5584 0001977  53.0402  42.4508 15.08833137  1303,6917.901,95.438,541.134,538.399,0.0
52544.0,STARLINK-3944,PAYLOAD,2022-07-05 14:00:01,15.08839038,0.0001826,53.2199,43.56399999999999,59.8607,58.8132,0.001959,0.00031026,0.0,0 STARLINK-3944,1 52544U 22051M   22186.58334491  .00031026  00000-0  19590-2 0  9994,2 52544  53.2199  43.5640 0001826  59.8607  58.8132 15.08839038  8678,6917.8830000000025,95.438,541.012,538.485,0.0
52544.0,STARLINK-3944,PAYLOAD,2022-07-05 22:00:00,15.08849909,0.0001952,53.2197,42.0696,54.163,76.113,-0.00028474,-4.818e-05,0.0,0 STARLINK-3944,1 52544U 22051M   22186.91667824 -.00004818  00000-0 -28474-3 0  9993,2 52544  53.2197  42.0696 0001952  54.1630  76.1130 15.08849909  1307,6917.85,95.437,541.065,538.365,0.0
52544.0,STARLINK-3944,PAYLOAD,2022-07-06 06:00:00,15.08865459,0.0001823,53.2195,40.5724,54.417,87.4599,-0.004085,-0.00064763,0.0,0 STARLINK-3944,1 52544U 22051M   22187.25001157 -.00064763  00000-0 -40850-2 0  9998,2 52544  53.2195  40.5724 0001823  54.4170  87.4599 15.08865459  8779,6917.803000000001,95.436,540.929,538.406,0.0
52544.0,STARLINK-3944,PAYLOAD,2022-07-06 14:00:01,15.08826767,0.0001721999999999,53.22,39.0753,60.6257,92.8466,0.0012184,0.00019149,0.0,0 STARLINK-3944,1 52544U 22051M   22187.58334491  .00019149  00000-0  12184-2 0  9999,2 52544  53.2200  39.0753 0001722  60.6257  92.8466 15.08826767  1308,6917.920999999999,95.438,540.977,538.595,0.0
52544.0,STARLINK-3944,PAYLOAD,2022-07-06 21:16:19,15.08833088,0.0001786999999999,53.2202,37.7159,58.4626,301.654,4.9408e-05,4.98e-06,0.0,0 STARLINK-3944,1 52544U 22051M   22187.88633347  .00000498  00000-0  49408-4 0  9992,2 52544  53.2202  37.7159 0001787  58.4626 301.6540 15.08833088  8878,6917.901999999999,95.438,541.003,538.53,0.0
52544.0,STARLINK-3944,PAYLOAD,2022-07-07 14:00:01,15.08844642,0.0001734,53.2197,34.5868,62.7576,125.4849,0.00083929,0.00013096,0.0,0 STARLINK-3944,1 52544U 22051M   22188.58334491  .00013096  00000-0  83929-3 0  9991,2 52544  53.2197  34.5868 0001734  62.7576 125.4849 15.08844642  8981,6917.866,95.437,540.931,538.5319999999998,0.0
52544.0,STARLINK-3944,PAYLOAD,2022-07-07 21:07:05,15.08846754,0.0001818,53.2203,33.2556,57.3694,302.7473,7.1356e-05,8.48e-06,0.0,0 STARLINK-3944,1 52544U 22051M   22188.87992640  .00000848  00000-0  71356-4 0  9992,2 52544  53.2203  33.2556 0001818  57.3694 302.7473 15.08846754  8959,6917.86,95.437,540.982,538.467,0.0
52544.0,STARLINK-3944,PAYLOAD,2022-07-08 14:00:01,15.08852683,0.0001636,53.2193,30.09800000000001,61.0993,161.9823,0.0012889,0.00020291,0.0,0 STARLINK-3944,1 52544U 22051M   22189.58334491  .00020291  00000-0  12889-2 0  9993,2 52544  53.2193  30.0980 0001636  61.0993 161.9823 15.08852683  1309,6917.842,95.437,540.8380000000002,538.575,0.0
